NORAD_CAT_ID,OBJECT_NAME,OBJECT_TYPE,EPOCH,MEAN_MOTION,ECCENTRICITY,INCLINATION,RA_OF_ASC_NODE,ARG_OF_PERICENTER,MEAN_ANOMALY,BSTAR,MEAN_MOTION_DOT,MEAN_MOTION_DDOT,TLE_LINE0,TLE_LINE1,TLE_LINE2,SEMIMAJOR_AXIS,PERIOD,APOGEE,PERIGEE,DECAYED
54078.0,STARLINK-5138,PAYLOAD,2023-03-17 10:29:02,15.08815314,0.0001026,53.2166,169.5913,105.1979,254.9127,0.0012357,0.0001942,0.0,0 STARLINK-5138,1 54078U 22136AD  23076.43683253  .00019420  00000-0  12357-2 0  9996,2 54078  53.2166 169.5913 0001026 105.1979 254.9127 15.08815314 23319,6917.956,95.439,540.531,539.111,0.0
54078.0,STARLINK-5138,PAYLOAD,2023-03-17 15:15:11,15.08826829,0.0001082,53.2163,168.6988,103.9637,256.1476,0.0019447,0.00030786,0.0,0 STARLINK-5138,1 54078U 22136AD  23076.63555496  .00030786  00000-0  19447-2 0  9990,2 54078  53.2163 168.6988 0001082 103.9637 256.1476 15.08826829 22860,6917.921,95.438,540.534,539.037,0.0
54078.0,STARLINK-5138,PAYLOAD,2023-03-17 23:12:07,15.08845936,0.0001096,53.2167,167.2126,101.0426,259.069,0.0018534,0.00029337,0.0,0 STARLINK-5138,1 54078U 22136AD  23076.96675565  .00029337  00000-0  18534-2 0  9992,2 54078  53.2167 167.2126 0001096 101.0426 259.0690 15.08845936 23392,6917.862,95.437,540.485,538.969,0.0
54078.0,STARLINK-5138,PAYLOAD,2023-03-18 18:16:43,15.08898968,0.0001113,53.2165,163.6441,96.7249,263.3869,0.002076,0.0003296,0.0,0 STARLINK-5138,1 54078U 22136AD  23077.76161808  .00032960  00000-0  20760-2 0  9991,2 54078  53.2165 163.6441 0001113  96.7249 263.3869 15.08898968 23033,6917.7,95.434,540.335,538.795,0.0
54078.0,STARLINK-5138,PAYLOAD,2023-03-18 23:02:53,15.08850125,8.35e-05,53.2172,162.7516,141.8353,218.2698,-0.0010949,-0.00017675,0.0,0 STARLINK-5138,1 54078U 22136AD  23077.96033773 -.00017675  00000-0 -10949-2 0  9998,2 54078  53.2172 162.7516 0000835 141.8353 218.2698 15.08850125 23540,6917.849,95.437,540.292,539.137,0.0
54078.0,STARLINK-5138,PAYLOAD,2023-03-19 11:45:58,15.08857084,0.0001207,53.2168,160.3733,112.544,247.568,0.0016481,0.00026051,0.0,0 STARLINK-5138,1 54078U 22136AD  23078.49026028  .00026051  00000-0  16481-2 0  9995,2 54078  53.2168 160.3733 0001207 112.5440 247.5680 15.08857084 23622,6917.828,95.436,540.528,538.858,0.0
54078.0,STARLINK-5138,PAYLOAD,2023-03-19 14:56:44,15.08863304,0.0001232,53.2169,159.7787,113.6458,246.4663,0.0022942,0.00036437,0.0,0 STARLINK-5138,1 54078U 22136AD  23078.62273953  .00036437  00000-0  22942-2 0  9999,2 54078  53.2169 159.7787 0001232 113.6458 246.4663 15.08863304 23163,6917.809,95.436,540.526,538.822,0.0
54078.0,STARLINK-5138,PAYLOAD,2023-03-20 05:15:13,15.08856765,0.0001874,53.2175,157.1028,93.4172,266.7035,0.0014685,0.00023171,0.0,0 STARLINK-5138,1 54078U 22136AD  23079.21890392  .00023171  00000-0  14685-2 0  9993,2 54078  53.2175 157.1028 0001874  93.4172 266.7035 15.08856765 23734,6917.829,95.436,540.991,538.398,0.0
54078.0,STARLINK-5138,PAYLOAD,2023-03-20 11:36:45,15.08848298,0.0001482,53.218,155.9124,112.758,247.3568,0.0012005,0.00018874,0.0,0 STARLINK-5138,1 54078U 22136AD  23079.48386308  .00018874  00000-0  12005-2 0  9997,2 54078  53.2180 155.9124 0001482 112.7580 247.3568 15.08848298 23778,6917.855,95.437,540.745,538.695,0.0
54078.0,STARLINK-5138,PAYLOAD,2023-03-20 14:47:31,15.08854888,0.0001434,53.2184,155.3182,105.8209,254.2941,0.001348,0.00021239,0.0,0 STARLINK-5138,1 54078U 22136AD  23079.61634203  .00021239  00000-0  13480-2 0  9999,2 54078  53.2184 155.3182 0001434 105.8209 254.2941 15.08854888 23312,6917.835,95.437,540.692,538.708,0.0
54078.0,STARLINK-5138,PAYLOAD,2023-03-21 08:16:46,15.08850945,0.0001188,53.2176,152.0469,115.1465,244.965,0.0013178,0.00020753,0.0,0 STARLINK-5138,1 54078U 22136AD  23080.34498407  .00020753  00000-0  13178-2 0  9999,2 54078  53.2176 152.0469 0001188 115.1465 244.9650 15.08850945 23907,6917.847,95.437,540.534,538.89,0.0
54078.0,STARLINK-5138,PAYLOAD,2023-03-21 11:27:32,15.08851261,0.0001188,53.2172,151.4527,109.2294,250.8827,0.0013218,0.00020817,0.0,0 STARLINK-5138,1 54078U 22136AD  23080.47746398  .00020817  00000-0  13218-2 0  9994,2 54078  53.2172 151.4527 0001188 109.2294 250.8827 15.08851261 23448,6917.846,95.437,540.533,538.889,0.0
54078.0,STARLINK-5138,PAYLOAD,2023-03-22 09:42:56,15.08842299,0.0001536,53.2179,147.2907,108.8322,251.2837,0.0003704,5.612e-05,0.0,0 STARLINK-5138,1 54078U 22136AD  23081.40482615  .00005612  00000-0  37040-3 0  9993,2 54078  53.2179 147.2907 0001536 108.8322 251.2837 15.08842299 24060,6917.873,95.437,540.801,538.676,0.0
54078.0,STARLINK-5138,PAYLOAD,2023-03-22 16:04:29,15.08855242,0.0001559,53.2174,146.0994,109.1388,250.9773,0.00044763,6.846e-05,0.0,0 STARLINK-5138,1 54078U 22136AD  23081.66978174  .00006846  00000-0  44763-3 0  9991,2 54078  53.2174 146.0994 0001559 109.1388 250.9773 15.08855242 23627,6917.834,95.437,540.777,538.62,0.0
54078.0,STARLINK-5138,PAYLOAD,2023-03-23 03:12:11,15.08835586,0.0001226,53.2182,144.0216,76.476,283.6368,-1.4821e-05,-5.24e-06,0.0,0 STARLINK-5138,1 54078U 22136AD  23082.13346723 -.00000524  00000-0 -14821-4 0  9995,2 54078  53.2182 144.0216 0001226  76.4760 283.6368 15.08835586 24175,6917.894,95.438,540.607,538.911,0.0
54078.0,STARLINK-5138,PAYLOAD,2023-03-23 11:09:06,15.0884798,0.0001402,53.2171,142.533,105.418,254.6967,0.0002305,3.383e-05,0.0,0 STARLINK-5138,1 54078U 22136AD  23082.46466233  .00003383  00000-0  23050-3 0  9997,2 54078  53.2171 142.5330 0001402 105.4180 254.6967 15.08847980 24228,6917.856,95.437,540.691,538.751,0.0
54078.0,STARLINK-5138,PAYLOAD,2023-03-23 20:41:25,15.08858168,0.0001326,53.2171,140.7498,95.8685,264.2458,0.00055762,8.602e-05,0.0,0 STARLINK-5138,1 54078U 22136AD  23082.86209900  .00008602  00000-0  55762-3 0  9991,2 54078  53.2171 140.7498 0001326  95.8685 264.2458 15.08858168 23805,6917.825,95.436,540.607,538.773,0.0
54078.0,STARLINK-5138,PAYLOAD,2023-03-24 10:59:52,15.08882051,0.0001068,53.2169,138.0719,104.6631,255.4479,0.001097,0.00017234,0.0,0 STARLINK-5138,1 54078U 22136AD  23083.45824502  .00017234  00000-0  10970-2 0  9990,2 54078  53.2169 138.0719 0001068 104.6631 255.4479 15.08882051 24377,6917.752,95.435,540.356,538.878,0.0
54078.0,STARLINK-5138,PAYLOAD,2023-03-24 12:35:15,15.08887231,0.0001135,53.2164,137.7745,106.0483,254.0634,0.0011986,0.00018864,0.0,0 STARLINK-5138,1 54078U 22136AD  23083.52448283  .00018864  00000-0  11986-2 0  9994,2 54078  53.2164 137.7745 0001135 106.0483 254.0634 15.08887231 23904,6917.736,95.435,540.386,538.816,0.0
54078.0,STARLINK-5138,PAYLOAD,2023-03-24 20:32:11,15.0883842,0.0001213,53.2166,136.2887,107.8485,252.264,-0.00026477,-4.499e-05,0.0,0 STARLINK-5138,1 54078U 22136AD  23083.85569264 -.00004499  00000-0 -26477-3 0  9996,2 54078  53.2166 136.2887 0001213 107.8485 252.2640 15.08838420 24437,6917.885,95.438,540.589,538.911,0.0
54078.0,STARLINK-5138,PAYLOAD,2023-03-25 10:50:41,15.08805497,0.0001388,53.2172,133.612,104.9668,255.1478,-0.00075808,-0.00012321,0.0,0 STARLINK-5138,1 54078U 22136AD  23084.45186966 -.00012321  00000-0 -75808-3 0  9992,2 54078  53.2172 133.6120 0001388 104.9668 255.1478 15.08805497 24528,6917.986,95.44,540.811,538.891,0.0
54078.0,STARLINK-5138,PAYLOAD,2023-03-25 20:23:00,15.08816325,0.0001383,53.217,131.8279,108.1557,251.9586,8.9043e-05,1.129e-05,0.0,0 STARLINK-5138,1 54078U 22136AD  23084.84931588  .00001129  00000-0  89043-4 0  9992,2 54078  53.2170 131.8279 0001383 108.1557 251.9586 15.08816325 24581,6917.953,95.439,540.775,538.861,0.0
54078.0,STARLINK-5138,PAYLOAD,2023-03-26 09:06:06,15.08841197,0.0001321,53.2162,129.448,114.9989,245.1141,0.0014773,0.00023302,0.0,0 STARLINK-5138,1 54078U 22136AD  23085.37924201  .00023302  00000-0  14773-2 0  9998,2 54078  53.2162 129.4480 0001321 114.9989 245.1141 15.08841197 24661,6917.877,95.437,540.656,538.828,0.0
54078.0,STARLINK-5138,PAYLOAD,2023-03-26 20:13:48,15.08845891,0.0001485,53.2172,127.3663,90.7164,269.3998,0.00067315,0.00010443,0.0,0 STARLINK-5138,1 54078U 22136AD  23085.84292263  .00010443  00000-0  67315-3 0  9999,2 54078  53.2172 127.3663 0001485  90.7164 269.3998 15.08845891 24730,6917.862,95.437,540.755,538.7,0.0
54078.0,STARLINK-5138,PAYLOAD,2023-03-27 12:07:39,15.08856521,0.0001398,53.2167,124.3904,114.5578,245.556,0.00059811,9.248e-05,0.0,0 STARLINK-5138,1 54078U 22136AD  23086.50531616  .00009248  00000-0  59811-3 0  9994,2 54078  53.2167 124.3904 0001398 114.5578 245.5560 15.08856521 24357,6917.83,95.437,540.662,538.728,0.0
54078.0,STARLINK-5138,PAYLOAD,2023-03-27 20:04:35,15.08847287,0.0001692,53.2179,122.9112,58.9128,301.203,0.00035704,5.4e-05,0.0,0 STARLINK-5138,1 54078U 22136AD  23086.83651935  .00005400  00000-0  35704-3 0  9998,2 54078  53.2179 122.9112 0001692  58.9128 301.2030 15.08847287 24883,6917.858,95.437,540.894,538.553,0.0
54078.0,STARLINK-5138,PAYLOAD,2023-03-28 11:58:26,15.08856533,0.0001322,53.218,119.9319,96.5877,263.5266,0.00035507,5.37e-05,0.0,0 STARLINK-5138,1 54078U 22136AD  23087.49891269  .00005370  00000-0  35507-3 0  9994,2 54078  53.2180 119.9319 0001322  96.5877 263.5266 15.08856533 24503,6917.83,95.437,540.609,538.78,0.0
54078.0,STARLINK-5138,PAYLOAD,2023-03-29 05:27:40,15.08843299,0.0001524,53.2191,116.665,102.4719,257.6444,8.9791e-05,1.141e-05,0.0,0 STARLINK-5138,1 54078U 22136AD  23088.22755539  .00001141  00000-0  89791-4 0  9992,2 54078  53.2191 116.6650 0001524 102.4719 257.6444 15.08843299 25095,6917.87,95.437,540.79,538.681,0.0
54078.0,STARLINK-5138,PAYLOAD,2023-03-29 08:38:26,15.08848164,0.0001278,53.2178,116.067,97.3505,262.7633,0.00010583,1.397e-05,0.0,0 STARLINK-5138,1 54078U 22136AD  23088.36003399  .00001397  00000-0  10583-3 0  9992,2 54078  53.2178 116.0670 0001278  97.3505 262.7633 15.08848164 24639,6917.855,95.437,540.605,538.836,0.0
54078.0,STARLINK-5138,PAYLOAD,2023-03-29 18:10:45,15.08837369,0.0001032,53.2178,114.2828,103.0792,257.0316,4.1534e-08,-2.87e-06,0.0,0 STARLINK-5138,1 54078U 22136AD  23088.75747646 -.00000287  00000-0  41534-7 0  9997,2 54078  53.2178 114.2828 0001032 103.0792 257.0316 15.08837369 25175,6917.888,95.438,540.467,539.04,0.0
